OBJECT_NAME,OBJECT_ID,EPOCH,MEAN_MOTION,ECCENTRICITY,INCLINATION,RA_OF_ASC_NODE,ARG_OF_PERICENTER,MEAN_ANOMALY,EPHEMERIS_TYPE,CLASSIFICATION_TYPE,NORAD_CAT_ID,ELEMENT_SET_NO,REV_AT_EPOCH,BSTAR,MEAN_MOTION_DOT,MEAN_MOTION_DDOT
TRITON-1,2013-066M,2026-06-14T14:15:52.629696,14.81700245,.008838,97.8256,75.4604,242.4889,116.7322,0,U,39427,999,67370,.26897151E-3,.2208E-4,0
GOMX-1,2013-066Q,2026-06-14T14:21:42.691392,14.69453911,.01302094,97.6484,6.2252,85.7861,275.8214,0,U,39430,999,66953,.3787524E-3,.2505E-4,0
CUBEBUG-2 (LO-74),2013-066AA,2026-06-14T14:01:56.957664,14.93741894,.00585759,97.8903,114.5518,37.4286,323.0990,0,U,39440,999,67660,.38757348E-3,.4184E-4,0
NEE-02 KRYSAOR,2013-066AB,2026-06-14T14:01:13.691136,14.86608022,.00676998,97.8892,104.8174,78.5405,282.3403,0,U,39441,999,67581,.25762509E-3,.2324E-4,0
FUNCUBE-1 (AO-73),2013-066AE,2026-06-14T11:18:34.873344,15.09460207,.00354108,97.8269,136.8603,210.5774,149.3391,0,U,39444,999,67925,.42768537E-3,.688E-4,0
UWE-3,2013-066AG,2026-06-14T09:48:00.988128,14.97004771,.00480238,97.8691,121.4633,330.3951,29.4552,0,U,39446,999,67716,.36060995E-3,.4185E-4,0
SMDC ONE 2.4,2013-072H,2026-06-14T05:43:17.817024,15.18132190,.014489,120.4930,340.6994,15.8830,344.6725,0,U,39469,999,11738,.37357E-3,.9724E-4,0
COSMOS 2488 (RODNIK-S 7),2013-076A,2026-06-14T14:57:02.656224,12.42905926,.00208283,82.4825,170.2924,100.5771,259.7656,0,U,39483,999,56557,.33927448E-3,.57E-6,0
COSMOS 2489 (RODNIK-S 8),2013-076B,2026-06-14T14:21:15.298272,12.42879877,.00226591,82.4863,171.6857,100.6045,259.7588,0,U,39484,999,56562,.6906313E-3,.106E-5,0
COSMOS 2490 (RODNIK-S 9),2013-076C,2026-06-14T13:40:46.207200,12.42878448,.0022695,82.4809,169.7719,115.5772,244.7657,0,U,39485,999,56555,.63753749E-3,.98E-6,0
KAZEOSAT 1,2014-024A,2026-06-14T14:14:15.144576,14.42080035,.00013969,98.3212,238.1048,74.6670,285.4674,0,U,39731,999,63818,.14176516E-3,.423E-5,0
COSMOS 2496 (RODNIK-S 10),2014-028A,2026-06-14T14:35:31.764192,12.42878395,.00213227,82.4445,110.3463,84.1796,276.1714,0,U,39761,999,54719,-.37999453E-3,-.43E-6,0
COSMOS 2497 (RODNIK-S 11),2014-028B,2026-06-14T13:59:58.867008,12.42894427,.00218931,82.4492,112.0504,79.4923,280.8621,0,U,39762,999,54719,.44291252E-3,.71E-6,0
COSMOS 2498 (RODNIK-S 12),2014-028C,2026-06-14T15:23:53.637792,12.42980228,.00226124,82.4453,110.5021,78.9710,281.3911,0,U,39763,999,54723,.43360235E-4,.16E-6,0
HODOYOSHI-4,2014-033B,2026-06-14T14:43:20.003808,14.88126313,.0022587,97.5449,350.5606,317.5017,42.4451,0,U,40011,999,64842,.20812209E-3,.1872E-4,0
UNISAT-6,2014-033C,2026-06-14T09:02:24.334656,14.88233320,.00463255,97.7871,318.1381,78.3311,282.3100,0,U,40012,999,64574,.32185713E-3,.2974E-4,0
DEIMOS-2,2014-033D,2026-06-14T13:41:39.776064,14.93717453,.0001645,97.5840,40.1519,48.5267,311.6094,0,U,40013,999,63733,.69963104E-4,.686E-5,0
BUGSAT-1 (TITA),2014-033E,2026-06-14T14:14:27.371904,15.15564311,.00277741,98.0435,257.9898,187.3961,172.6864,0,U,40014,999,65544,.35298595E-3,.6686E-4,0
SAUDISAT 4,2014-033G,2026-06-14T09:55:41.176128,14.79541441,.0046219,97.7579,311.6443,82.7448,277.9015,0,U,40016,999,64566,.88181893E-4,.62E-5,0
APRIZESAT 9,2014-033J,2026-06-14T08:33:54.303264,14.74211011,.00654797,97.9057,298.6247,208.3420,151.4221,0,U,40018,999,64314,.9600176E-4,.603E-5,0
BRITE-CA1 (TORONTO),2014-033L,2026-06-14T07:40:48.178848,14.72673070,.00772746,97.9735,294.3008,286.3637,72.9085,0,U,40020,999,64179,.10219606E-3,.628E-5,0
